[{"OBJECT_NAME":"STARLINK-3827","OBJECT_ID":"2022-045AR","EPOCH":"2026-03-09T15:20:34.434816","MEAN_MOTION":15.0883779,"ECCENTRICITY":0.0001291,"INCLINATION":53.2187,"RA_OF_ASC_NODE":189.3589,"ARG_OF_PERICENTER":91.769,"MEAN_ANOMALY":268.345,"EPHEMERIS_TYPE":0,"CLASSIFICATION_TYPE":"U","NORAD_CAT_ID":52370,"ELEMENT_SET_NO":999,"REV_AT_EPOCH":21591,"BSTAR":5.371e-5,"MEAN_MOTION_DOT":5.67e-6,"MEAN_MOTION_DDOT":0},{"OBJECT_NAME":"THOR ABLESTAR DEB","OBJECT_ID":"1961-015HM","EPOCH":"2026-03-09T12:53:31.788672","MEAN_MOTION":15.12609006,"ECCENTRICITY":0.0020802,"INCLINATION":66.4912,"RA_OF_ASC_NODE":108.7707,"ARG_OF_PERICENTER":275.236,"MEAN_ANOMALY":209.827,"EPHEMERIS_TYPE":0,"CLASSIFICATION_TYPE":"U","NORAD_CAT_ID":660,"ELEMENT_SET_NO":999,"REV_AT_EPOCH":37032,"BSTAR":0.0020976473,"MEAN_MOTION_DOT":0.00036985,"MEAN_MOTION_DDOT":0}]
